[{"OBJECT_NAME":"TRANSPORTER-15 OBJECT H","OBJECT_ID":"2025-276H","EPOCH":"2026-03-09T17:32:53.221056","MEAN_MOTION":15.1998776,"ECCENTRICITY":0.00060412,"INCLINATION":97.4225,"RA_OF_ASC_NODE":143.9657,"ARG_OF_PERICENTER":14.2077,"MEAN_ANOMALY":345.9327,"EPHEMERIS_TYPE":0,"CLASSIFICATION_TYPE":"U","NORAD_CAT_ID":66673,"ELEMENT_SET_NO":999,"REV_AT_EPOCH":1532,"BSTAR":0.00046258032,"MEAN_MOTION_DOT":9.902e-5,"MEAN_MOTION_DDOT":0},{"OBJECT_NAME":"FENGYUN 1C DEB","OBJECT_ID":"1999-025FN","EPOCH":"2026-03-09T22:18:23.675616","MEAN_MOTION":14.79879453,"ECCENTRICITY":0.01939452,"INCLINATION":97.9352,"RA_OF_ASC_NODE":118.672,"ARG_OF_PERICENTER":81.3681,"MEAN_ANOMALY":358.3473,"EPHEMERIS_TYPE":0,"CLASSIFICATION_TYPE":"U","NORAD_CAT_ID":29868,"ELEMENT_SET_NO":999,"REV_AT_EPOCH":1584,"BSTAR":0.0007539816,"MEAN_MOTION_DOT":7.789e-5,"MEAN_MOTION_DDOT":0}]
